NORAD_CAT_ID,OBJECT_NAME,OBJECT_TYPE,EPOCH,MEAN_MOTION,ECCENTRICITY,INCLINATION,RA_OF_ASC_NODE,ARG_OF_PERICENTER,MEAN_ANOMALY,BSTAR,MEAN_MOTION_DOT,MEAN_MOTION_DDOT,TLE_LINE0,TLE_LINE1,TLE_LINE2,SEMIMAJOR_AXIS,PERIOD,APOGEE,PERIGEE,DECAYED
52361.0,STARLINK-3728,PAYLOAD,2022-07-01 14:00:01,15.41462202,0.0001328,53.2175,128.8176,51.8555,336.7022,-0.018327,-0.00720271,0.0,0 STARLINK-3728,1 52361U 22045AG  22182.58334491 -.00720271  00000-0 -18327-1 0  9995,2 52361  53.2175 128.8176 0001328  51.8555 336.7022 15.41462202  1302,6819.93,93.418,442.701,440.889,0.0
52361.0,STARLINK-3728,PAYLOAD,2022-07-01 22:00:00,15.40951502,0.0001506999999999,53.2176,127.2471,46.8743,32.1639,-0.018594,-0.00718551,0.0,0 STARLINK-3728,1 52361U 22045AG  22182.91667824 -.00718551  00000-0 -18594-1 0  9995,2 52361  53.2176 127.2471 0001507  46.8743  32.1639 15.40951502  1302,6821.437,93.449,444.33,442.274,0.0
52361.0,STARLINK-3728,PAYLOAD,2022-07-02 14:00:01,15.39931488,0.0001498,53.2176,124.1102,53.3741,124.7864,-0.019224,-0.00718131,0.0,0 STARLINK-3728,1 52361U 22045AG  22183.58334491 -.00718131  00000-0 -19224-1 0  9995,2 52361  53.2176 124.1102 0001498  53.3741 124.7864 15.39931488  1306,6824.449000000001,93.511,447.336,445.291,0.0
52361.0,STARLINK-3728,PAYLOAD,2022-07-02 22:00:00,15.39420716,0.0001501,53.2177,122.5438,55.4746,171.3278,-0.019507,-0.00716605,0.0,0 STARLINK-3728,1 52361U 22045AG  22183.91667824 -.00716605  00000-0 -19507-1 0  9999,2 52361  53.2177 122.5438 0001501  55.4746 171.3278 15.39420716  1308,6825.958000000001,93.542,448.848,446.799,0.0
52361.0,STARLINK-3728,PAYLOAD,2022-07-03 00:00:00,15.39293957,0.0001483,53.2177,122.1521,48.2624,280.6047,-0.019631,-0.00718029,0.0,0 STARLINK-3728,1 52361U 22045AG  22184.00001157 -.00718029  00000-0 -19631-1 0  9991,2 52361  53.2177 122.1521 0001483  48.2624 280.6047 15.39293957 12609,6826.333000000001,93.549,449.21,447.186,0.0
52361.0,STARLINK-3728,PAYLOAD,2022-07-03 14:00:01,15.38402319,0.0001314,53.2176,119.4138,55.3744,266.8734,-0.020266,-0.00719651,0.0,0 STARLINK-3728,1 52361U 22045AG  22184.58334491 -.00719651  00000-0 -20266-1 0  9992,2 52361  53.2176 119.4138 0001314  55.3744 266.8734 15.38402319  1303,6828.97,93.604,451.733,449.93800000000016,0.0
52361.0,STARLINK-3728,PAYLOAD,2022-07-03 22:00:00,15.37892786,0.0001336,53.2178,117.8511,54.9032,314.1477,-0.020616,-0.00719936,0.0,0 STARLINK-3728,1 52361U 22045AG  22184.91667824 -.00719936  00000-0 -20616-1 0  9993,2 52361  53.2178 117.8511 0001336  54.9032 314.1477 15.37892786  1302,6830.479,93.635,453.256,451.431,0.0
52361.0,STARLINK-3728,PAYLOAD,2022-07-04 06:00:00,15.37379413,0.0001449,53.2174,116.2907,48.1995,7.0427,-0.020787,-0.00714306,0.0,0 STARLINK-3728,1 52361U 22045AG  22185.25001157 -.00714306  00000-0 -20787-1 0  9997,2 52361  53.2174 116.2907 0001449  48.1995   7.0427 15.37379413 12793,6831.999,93.666,454.854,452.874,0.0
52361.0,STARLINK-3728,PAYLOAD,2022-07-04 14:00:01,15.36870412,0.0001356,53.2175,114.7283,56.2681,44.5531,-0.021194,-0.0071616,0.0,0 STARLINK-3728,1 52361U 22045AG  22185.58334491 -.00716160  00000-0 -21194-1 0  9996,2 52361  53.2175 114.7283 0001356  56.2681  44.5531 15.36870412  1304,6833.507,93.697,456.299,454.446,0.0
52361.0,STARLINK-3728,PAYLOAD,2022-07-04 22:00:00,15.36361423,0.0001447,53.2177,113.1692,57.706,88.0797,-0.021597,-0.00717712,0.0,0 STARLINK-3728,1 52361U 22045AG  22185.91667824 -.00717712  00000-0 -21597-1 0  9993,2 52361  53.2177 113.1692 0001447  57.7060  88.0797 15.36361423  1305,6835.017,93.728,457.871,455.893,0.0
52361.0,STARLINK-3728,PAYLOAD,2022-07-05 08:00:01,15.35725814,0.0001321,53.2171,111.2227,61.887,229.242,-0.022122,-0.00720004,0.0,0 STARLINK-3728,1 52361U 22045AG  22186.33334491 -.00720004  00000-0 -22122-1 0  9994,2 52361  53.2171 111.2227 0001321  61.8870 229.2420 15.35725814 12961,6836.901999999999,93.767,459.671,457.864,0.0
52361.0,STARLINK-3728,PAYLOAD,2022-07-05 14:00:01,15.35340261,0.0001385999999999,53.2175,110.0536,61.8559,172.0226,-0.022237,-0.00715209,0.0,0 STARLINK-3728,1 52361U 22045AG  22186.58334491 -.00715209  00000-0 -22237-1 0  9999,2 52361  53.2175 110.0536 0001386  61.8559 172.0226 15.35340261  1304,6838.047,93.79,460.86,458.964,0.0
52361.0,STARLINK-3728,PAYLOAD,2022-07-05 22:00:00,15.34831013,0.000144,53.2175,108.4984,56.8527,220.1519,-0.022641,-0.00716306,0.0,0 STARLINK-3728,1 52361U 22045AG  22186.91667824 -.00716306  00000-0 -22641-1 0  9993,2 52361  53.2175 108.4984 0001440  56.8527 220.1519 15.34831013  1301,6839.559,93.821,462.409,460.44,0.0
52361.0,STARLINK-3728,PAYLOAD,2022-07-06 14:00:01,15.33810003,0.0001325,53.2174,105.3898,53.1703,308.2508,-0.023349,-0.00715069,0.0,0 STARLINK-3728,1 52361U 22045AG  22187.58334491 -.00715069  00000-0 -23349-1 0  9999,2 52361  53.2174 105.3898 0001325  53.1703 308.2508 15.33810003  1310,6842.594,93.884,465.366,463.55300000000005,0.0
52361.0,STARLINK-3728,PAYLOAD,2022-07-06 16:00:00,15.33683768,0.0001452,53.2173,105.0014,51.8993,49.9011,-0.023532,-0.00717595,0.0,0 STARLINK-3728,1 52361U 22045AG  22187.66667824 -.00717595  00000-0 -23532-1 0  9997,2 52361  53.2173 105.0014 0001452  51.8993  49.9011 15.33683768 13163,6842.97,93.892,465.828,463.841,0.0
52361.0,STARLINK-3728,PAYLOAD,2022-07-06 18:41:44,15.34906304,0.0001686999999999,53.2196,104.4654,123.2997,236.8169,-0.0053349,-0.00179273,0.0,0 STARLINK-3728,1 52361U 22045AG  22187.77899021 -.00179273  00000-0 -53349-2 0  9990,2 52361  53.2196 104.4654 0001687 123.2997 236.8169 15.34906304 13187,6839.3359999999975,93.817,462.355,460.047,0.0
52361.0,STARLINK-3728,PAYLOAD,2022-07-07 06:00:02,15.32790102,0.0001355,53.2172,102.2885,56.989,26.4587,-0.024078,-0.00713987,0.0,0 STARLINK-3728,1 52361U 22045AG  22188.25002315 -.00713987  00000-0 -24078-1 0  9998,2 52361  53.2172 102.2885 0001355  56.9890  26.4587 15.32790102 13259,6845.629,93.946,468.422,466.567,0.0
52361.0,STARLINK-3728,PAYLOAD,2022-07-07 14:00:01,15.32280127,0.0001431999999999,53.2174,100.7369,53.6564,69.7918,-0.024502,-0.00714882,0.0,0 STARLINK-3728,1 52361U 22045AG  22188.58334491 -.00714882  00000-0 -24502-1 0  9994,2 52361  53.2174 100.7369 0001432  53.6564  69.7918 15.32280127  1301,6847.148,93.978,469.994,468.033,0.0
52361.0,STARLINK-3728,PAYLOAD,2022-07-07 22:00:00,15.31770574,0.0001541999999999,53.2175,99.1892,55.0274,107.8702,-0.024916,-0.00715361,0.0,0 STARLINK-3728,1 52361U 22045AG  22188.91667824 -.00715361  00000-0 -24916-1 0  9992,2 52361  53.2175  99.1892 0001542  55.0274 107.8702 15.31770574  1304,6848.667,94.009,471.588,469.476,0.0
52361.0,STARLINK-3728,PAYLOAD,2022-07-08 05:07:56,15.32720276,8.290000000000001e-05,53.219,97.794,158.3981,201.7057,-0.0061579999999999,-0.00192676,0.0,0 STARLINK-3728,1 52361U 22045AG  22189.21385179 -.00192676  00000-0 -61580-2 0  9993,2 52361  53.2190  97.7940 0000829 158.3981 201.7057 15.32720276 13404,6845.837,93.951,468.27,467.135,0.0
52361.0,STARLINK-3728,PAYLOAD,2022-07-08 14:00:01,15.30749763,0.0001460999999999,53.2173,96.0947,56.2132,183.7473,-0.025659,-0.00713621,0.0,0 STARLINK-3728,1 52361U 22045AG  22189.58334491 -.00713621  00000-0 -25659-1 0  9999,2 52361  53.2173  96.0947 0001461  56.2132 183.7473 15.30749763 13457,6851.7109999999975,94.072,474.577,472.575,0.0
52361.0,STARLINK-3728,PAYLOAD,2022-07-08 22:00:01,15.30240338,0.0001551,53.2174,94.551,51.0764,226.5584,-0.026096,-0.00714289,0.0,0 STARLINK-3728,1 52361U 22045AG  22189.91668981 -.00714289  00000-0 -26096-1 0  9997,2 52361  53.2174  94.5510 0001551  51.0764 226.5584 15.30240338  1305,6853.232,94.103,476.16,474.034,0.0
52361.0,STARLINK-3728,PAYLOAD,2022-07-09 14:00:01,15.29219011,0.0001375,53.2173,91.4635,51.0349,299.923,-0.026865,-0.00712504,0.0,0 STARLINK-3728,1 52361U 22045AG  22190.58334491 -.00712504  00000-0 -26865-1 0  9990,2 52361  53.2173  91.4635 0001375  51.0349 299.9230 15.29219011  1305,6856.283,94.166,479.09,477.205,0.0
52361.0,STARLINK-3728,PAYLOAD,2022-07-09 16:00:00,15.29093369,0.0001505,53.2174,91.0778,50.2505,39.7076,-0.027104,-0.0071579999999999,0.0,0 STARLINK-3728,1 52361U 22045AG  22190.66667824 -.00715800  00000-0 -27104-1 0  9997,2 52361  53.2174  91.0778 0001505  50.2505  39.7076 15.29093369 13622,6856.658,94.173,479.555,477.491,0.0
52361.0,STARLINK-3728,PAYLOAD,2022-07-09 20:00:01,15.28838706,0.0001615,53.2175,90.3081,45.9517,241.8922,-0.027306,-0.0071552,0.0,0 STARLINK-3728,1 52361U 22045AG  22190.83334491 -.00715520  00000-0 -27306-1 0  9990,2 52361  53.2175  90.3081 0001615  45.9517 241.8922 15.28838706  1307,6857.42,94.189,480.392,478.177,0.0
52361.0,STARLINK-3728,PAYLOAD,2022-07-10 14:00:01,15.27690809,0.0001520999999999,53.2174,86.84299999999998,48.1869,48.2523,-0.028291,-0.00723877,0.0,0 STARLINK-3728,1 52361U 22045AG  22191.58334491 -.00723877  00000-0 -28291-1 0  9991,2 52361  53.2174  86.8430 0001521  48.1869  48.2523 15.27690809  1300,6860.854,94.26,483.763,481.676,0.0
52361.0,STARLINK-3728,PAYLOAD,2022-07-10 22:00:00,15.27180609,0.0001816,53.2174,85.3067,40.2873,90.0861,-0.028705,-0.00723182,0.0,0 STARLINK-3728,1 52361U 22045AG  22191.91667824 -.00723182  00000-0 -28705-1 0  9996,2 52361  53.2174  85.3067 0001816  40.2873  90.0861 15.27180609 13816,6862.382,94.291,485.49300000000005,483.001,0.0
52361.0,STARLINK-3728,PAYLOAD,2022-07-11 14:00:01,15.26161671,0.0001579,53.2173,82.2334,52.2074,144.1983,-0.029696,-0.00725124,0.0,0 STARLINK-3728,1 52361U 22045AG  22192.58334491 -.00725124  00000-0 -29696-1 0  9999,2 52361  53.2173  82.2334 0001579  52.2074 144.1983 15.26161671  1304,6865.436,94.354,488.385,486.217,0.0
52361.0,STARLINK-3728,PAYLOAD,2022-07-11 22:00:00,15.25649384,0.0001852,53.2175,80.7009,41.3663,187.1358,-0.029962,-0.00720694,0.0,0 STARLINK-3728,1 52361U 22045AG  22192.91667824 -.00720694  00000-0 -29962-1 0  9998,2 52361  53.2175  80.7009 0001852  41.3663 187.1358 15.25649384 13964,6866.973000000001,94.386,490.11,487.566,0.0
